[{"OBJECT_NAME":"STARLINK-34615","OBJECT_ID":"2025-253C","EPOCH":"2026-03-09T10:03:19.471968","MEAN_MOTION":15.27600643,"ECCENTRICITY":0.00015165,"INCLINATION":42.9927,"RA_OF_ASC_NODE":213.96,"ARG_OF_PERICENTER":149.7735,"MEAN_ANOMALY":210.3204,"EPHEMERIS_TYPE":0,"CLASSIFICATION_TYPE":"U","NORAD_CAT_ID":66321,"ELEMENT_SET_NO":999,"REV_AT_EPOCH":2020,"BSTAR":0.0010533718,"MEAN_MOTION_DOT":0.00028856,"MEAN_MOTION_DDOT":0},{"OBJECT_NAME":"KUIPER-00274","OBJECT_ID":"2026-030AE","EPOCH":"2026-03-09T22:00:01.999584","MEAN_MOTION":15.29896925,"ECCENTRICITY":0.00182929,"INCLINATION":51.8831,"RA_OF_ASC_NODE":218.6923,"ARG_OF_PERICENTER":71.2033,"MEAN_ANOMALY":115.2248,"EPHEMERIS_TYPE":0,"CLASSIFICATION_TYPE":"U","NORAD_CAT_ID":67792,"ELEMENT_SET_NO":999,"REV_AT_EPOCH":410,"BSTAR":0.0017989756,"MEAN_MOTION_DOT":0.00053102,"MEAN_MOTION_DDOT":0}]
